SCD 1                   
1 22490U 93009B   26141.95380432  .00000339  00000+0  41688-4 0  9991
2 22490  24.9712   9.5483 0041806 220.1806 269.4461 14.46107573757314
TECHSAT 1B (GO-32)      
1 25397U 98043D   26141.93394593  .00000024  00000+0  30413-4 0  9999
2 25397  99.0063 134.0318 0000516 348.6255  11.4911 14.24422532447595
SCD 2                   
1 25504U 98060A   26141.67093346  .00000303  00000+0  33724-4 0  9999
2 25504  24.9949 235.6861 0016591 202.2332 303.8614 14.45514277456484
DLR-TUBSAT              
1 25757U 99029B   26141.97729010  .00000034  00000+0  20114-4 0  9992
2 25757  98.6692 136.6202 0015344  71.5489 288.7372 14.52418806429448
TERRA                   
1 25994U 99068A   26141.92867715  .00000228  00000+0  55382-4 0  9998
2 25994  97.9473 192.5137 0001418 351.0054  86.6719 14.61078959405770
MAROC-TUBSAT            
1 27004U 01056D   26141.95420929 -.00000035  00000+0  13454-4 0  9998
2 27004  99.8072 318.3205 0019455 208.1326 307.2775 13.70261244222599
AQUA                    
1 27424U 02022A   26141.90547571  .00000520  00000+0  11323-3 0  9996
2 27424  98.4263 110.6668 0001985  68.3882 315.4949 14.62111411279431
SHIYAN-1 (SY-1)         
1 28220U 04012A   26141.88516902  .00010480  00000+0  33121-3 0  9999
2 28220  97.8688 218.2604 0007141 112.5393 247.6605 15.32992018207067
AURA                    
1 28376U 04026A   26141.89811633  .00000534  00000+0  11790-3 0  9993
2 28376  98.3403  98.1374 0001589  72.9291 287.2083 14.61282751162376
IRS-P5 (CARTOSAT-1)     
1 28649U 05017A   26141.50263535  .00000746  00000+0  80783-4 0  9991
2 28649  97.5324 165.7774 0002402 114.0533 246.0938 14.90969309139840
SINAH 1                 
1 28893U 05043D   26141.94841861  .00000188  00000+0  45118-4 0  9996
2 28893  98.2825 276.1215 0014384   3.9101 356.2211 14.64137065 96680
RESURS-DK 1             
1 29228U 06021A   26141.92348649  .00001334  00000+0  81322-4 0  9991
2 29228  69.9322  47.5344 0005084 323.9959  36.0865 15.13088397 98606
ARIRANG-2 (KOMPSAT-2)   
1 29268U 06031A   26142.00971102  .00000421  00000+0  87499-4 0  9999
2 29268  97.8307 327.7231 0014965 151.3794   8.8536 14.64641576 57649
