[
    {
        "ARG_OF_PERICENTER": 220.1806,
        "BSTAR": 4.1688168e-05,
        "CLASSIFICATION_TYPE": "U",
        "ECCENTRICITY": 0.00418069,
        "ELEMENT_SET_NO": 999,
        "EPHEMERIS_TYPE": 0,
        "EPOCH": "2026-05-21T22:53:28.693248",
        "INCLINATION": 24.9712,
        "MEAN_ANOMALY": 269.4461,
        "MEAN_MOTION": 14.46107573,
        "MEAN_MOTION_DDOT": 0,
        "MEAN_MOTION_DOT": 3.39e-06,
        "NORAD_CAT_ID": 22490,
        "OBJECT_ID": "1993-009B",
        "OBJECT_NAME": "SCD 1",
        "RA_OF_ASC_NODE": 9.5483,
        "REV_AT_EPOCH": 75731
    },
    {
        "ARG_OF_PERICENTER": 348.6255,
        "BSTAR": 3.0413012e-05,
        "CLASSIFICATION_TYPE": "U",
        "ECCENTRICITY": 5.161e-05,
        "ELEMENT_SET_NO": 999,
        "EPHEMERIS_TYPE": 0,
        "EPOCH": "2026-05-21T22:24:52.928352",
        "INCLINATION": 99.0063,
        "MEAN_ANOMALY": 11.4911,
        "MEAN_MOTION": 14.24422532,
        "MEAN_MOTION_DDOT": 0,
        "MEAN_MOTION_DOT": 2.4e-07,
        "NORAD_CAT_ID": 25397,
        "OBJECT_ID": "1998-043D",
        "OBJECT_NAME": "TECHSAT 1B (GO-32)",
        "RA_OF_ASC_NODE": 134.0318,
        "REV_AT_EPOCH": 44759
    },
    {
        "ARG_OF_PERICENTER": 202.2332,
        "BSTAR": 3.3723931e-05,
        "CLASSIFICATION_TYPE": "U",
        "ECCENTRICITY": 0.00165914,
        "ELEMENT_SET_NO": 999,
        "EPHEMERIS_TYPE": 0,
        "EPOCH": "2026-05-21T16:06:08.650944",
        "INCLINATION": 24.9949,
        "MEAN_ANOMALY": 303.8614,
        "MEAN_MOTION": 14.45514277,
        "MEAN_MOTION_DDOT": 0,
        "MEAN_MOTION_DOT": 3.03e-06,
        "NORAD_CAT_ID": 25504,
        "OBJECT_ID": "1998-060A",
        "OBJECT_NAME": "SCD 2",
        "RA_OF_ASC_NODE": 235.6861,
        "REV_AT_EPOCH": 45648
    },
    {
        "ARG_OF_PERICENTER": 71.5489,
        "BSTAR": 2.0114332e-05,
        "CLASSIFICATION_TYPE": "U",
        "ECCENTRICITY": 0.00153448,
        "ELEMENT_SET_NO": 999,
        "EPHEMERIS_TYPE": 0,
        "EPOCH": "2026-05-21T23:27:17.864640",
        "INCLINATION": 98.6692,
        "MEAN_ANOMALY": 288.7372,
        "MEAN_MOTION": 14.52418806,
        "MEAN_MOTION_DDOT": 0,
        "MEAN_MOTION_DOT": 3.4e-07,
        "NORAD_CAT_ID": 25757,
        "OBJECT_ID": "1999-029B",
        "OBJECT_NAME": "DLR-TUBSAT",
        "RA_OF_ASC_NODE": 136.6202,
        "REV_AT_EPOCH": 42944
    },
    {
        "ARG_OF_PERICENTER": 351.0054,
        "BSTAR": 5.5382398e-05,
        "CLASSIFICATION_TYPE": "U",
        "ECCENTRICITY": 0.00014189,
        "ELEMENT_SET_NO": 999,
        "EPHEMERIS_TYPE": 0,
        "EPOCH": "2026-05-21T22:17:17.705760",
        "INCLINATION": 97.9473,
        "MEAN_ANOMALY": 86.6719,
        "MEAN_MOTION": 14.61078959,
        "MEAN_MOTION_DDOT": 0,
        "MEAN_MOTION_DOT": 2.28e-06,
        "NORAD_CAT_ID": 25994,
        "OBJECT_ID": "1999-068A",
        "OBJECT_NAME": "TERRA",
        "RA_OF_ASC_NODE": 192.5137,
        "REV_AT_EPOCH": 40577
    },
    {
        "ARG_OF_PERICENTER": 208.1326,
        "BSTAR": 1.3454359e-05,
        "CLASSIFICATION_TYPE": "U",
        "ECCENTRICITY": 0.00194555,
        "ELEMENT_SET_NO": 999,
        "EPHEMERIS_TYPE": 0,
        "EPOCH": "2026-05-21T22:54:03.682656",
        "INCLINATION": 99.8072,
        "MEAN_ANOMALY": 307.2775,
        "MEAN_MOTION": 13.70261244,
        "MEAN_MOTION_DDOT": 0,
        "MEAN_MOTION_DOT": -3.5e-07,
        "NORAD_CAT_ID": 27004,
        "OBJECT_ID": "2001-056D",
        "OBJECT_NAME": "MAROC-TUBSAT",
        "RA_OF_ASC_NODE": 318.3205,
        "REV_AT_EPOCH": 22259
    },
    {
        "ARG_OF_PERICENTER": 68.3882,
        "BSTAR": 0.00011323009,
        "CLASSIFICATION_TYPE": "U",
        "ECCENTRICITY": 0.00019856,
        "ELEMENT_SET_NO": 999,
        "EPHEMERIS_TYPE": 0,
        "EPOCH": "2026-05-21T21:43:53.101344",
        "INCLINATION": 98.4263,
        "MEAN_ANOMALY": 315.4949,
        "MEAN_MOTION": 14.62111411,
        "MEAN_MOTION_DDOT": 0,
        "MEAN_MOTION_DOT": 5.2e-06,
        "NORAD_CAT_ID": 27424,
        "OBJECT_ID": "2002-022A",
        "OBJECT_NAME": "AQUA",
        "RA_OF_ASC_NODE": 110.6668,
        "REV_AT_EPOCH": 27943
    },
    {
        "ARG_OF_PERICENTER": 112.5393,
        "BSTAR": 0.00033121392,
        "CLASSIFICATION_TYPE": "U",
        "ECCENTRICITY": 0.0007141,
        "ELEMENT_SET_NO": 999,
        "EPHEMERIS_TYPE": 0,
        "EPOCH": "2026-05-21T21:14:38.603328",
        "INCLINATION": 97.8688,
        "MEAN_ANOMALY": 247.6605,
        "MEAN_MOTION": 15.32992018,
        "MEAN_MOTION_DDOT": 0,
        "MEAN_MOTION_DOT": 0.0001048,
        "NORAD_CAT_ID": 28220,
        "OBJECT_ID": "2004-012A",
        "OBJECT_NAME": "SHIYAN-1 (SY-1)",
        "RA_OF_ASC_NODE": 218.2604,
        "REV_AT_EPOCH": 20706
    },
    {
        "ARG_OF_PERICENTER": 72.9291,
        "BSTAR": 0.000117898,
        "CLASSIFICATION_TYPE": "U",
        "ECCENTRICITY": 0.00015891,
        "ELEMENT_SET_NO": 999,
        "EPHEMERIS_TYPE": 0,
        "EPOCH": "2026-05-21T21:33:17.250912",
        "INCLINATION": 98.3403,
        "MEAN_ANOMALY": 287.2083,
        "MEAN_MOTION": 14.61282751,
        "MEAN_MOTION_DDOT": 0,
        "MEAN_MOTION_DOT": 5.34e-06,
        "NORAD_CAT_ID": 28376,
        "OBJECT_ID": "2004-026A",
        "OBJECT_NAME": "AURA",
        "RA_OF_ASC_NODE": 98.1374,
        "REV_AT_EPOCH": 16237
    },
    {
        "ARG_OF_PERICENTER": 114.0533,
        "BSTAR": 8.0783e-05,
        "CLASSIFICATION_TYPE": "U",
        "ECCENTRICITY": 0.0002402,
        "ELEMENT_SET_NO": 999,
        "EPHEMERIS_TYPE": 0,
        "EPOCH": "2026-05-21T12:03:47.694240",
        "INCLINATION": 97.5324,
        "MEAN_ANOMALY": 246.0938,
        "MEAN_MOTION": 14.90969309,
        "MEAN_MOTION_DDOT": 0,
        "MEAN_MOTION_DOT": 7.46e-06,
        "NORAD_CAT_ID": 28649,
        "OBJECT_ID": "2005-017A",
        "OBJECT_NAME": "IRS-P5 (CARTOSAT-1)",
        "RA_OF_ASC_NODE": 165.7774,
        "REV_AT_EPOCH": 13984
    },
    {
        "ARG_OF_PERICENTER": 3.9101,
        "BSTAR": 4.5117984e-05,
        "CLASSIFICATION_TYPE": "U",
        "ECCENTRICITY": 0.00143848,
        "ELEMENT_SET_NO": 999,
        "EPHEMERIS_TYPE": 0,
        "EPOCH": "2026-05-21T22:45:43.367904",
        "INCLINATION": 98.2825,
        "MEAN_ANOMALY": 356.2211,
        "MEAN_MOTION": 14.64137065,
        "MEAN_MOTION_DDOT": 0,
        "MEAN_MOTION_DOT": 1.88e-06,
        "NORAD_CAT_ID": 28893,
        "OBJECT_ID": "2005-043D",
        "OBJECT_NAME": "SINAH 1",
        "RA_OF_ASC_NODE": 276.1215,
        "REV_AT_EPOCH": 9668
    },
    {
        "ARG_OF_PERICENTER": 323.9959,
        "BSTAR": 8.1321965e-05,
        "CLASSIFICATION_TYPE": "U",
        "ECCENTRICITY": 0.0005084,
        "ELEMENT_SET_NO": 999,
        "EPHEMERIS_TYPE": 0,
        "EPOCH": "2026-05-21T22:09:49.232736",
        "INCLINATION": 69.9322,
        "MEAN_ANOMALY": 36.0865,
        "MEAN_MOTION": 15.13088397,
        "MEAN_MOTION_DDOT": 0,
        "MEAN_MOTION_DOT": 1.334e-05,
        "NORAD_CAT_ID": 29228,
        "OBJECT_ID": "2006-021A",
        "OBJECT_NAME": "RESURS-DK 1",
        "RA_OF_ASC_NODE": 47.5344,
        "REV_AT_EPOCH": 9860
    },
    {
        "ARG_OF_PERICENTER": 151.3794,
        "BSTAR": 8.749907e-05,
        "CLASSIFICATION_TYPE": "U",
        "ECCENTRICITY": 0.00149659,
        "ELEMENT_SET_NO": 999,
        "EPHEMERIS_TYPE": 0,
        "EPOCH": "2026-05-22T00:13:59.032128",
        "INCLINATION": 97.8307,
        "MEAN_ANOMALY": 8.8536,
        "MEAN_MOTION": 14.64641576,
        "MEAN_MOTION_DDOT": 0,
        "MEAN_MOTION_DOT": 4.21e-06,
        "NORAD_CAT_ID": 29268,
        "OBJECT_ID": "2006-031A",
        "OBJECT_NAME": "ARIRANG-2 (KOMPSAT-2)",
        "RA_OF_ASC_NODE": 327.7231,
        "REV_AT_EPOCH": 5764
    }
]